: "0-0-0T00:00:00.0Z","phone": "0","address": {        "street": "",        "suite": "Suite 758",        "city": "",        "zipcode": "",        "geo": {            "lat": "-56.4486",            "lng": "88.3522"        } },    "Group": "2"}
,{"name": "CLOUTIER, GILLES","username": "0346","avatar": ","email": "","dob": "0-0-0T00:00:00.0Z","phone": "0","address": {        "street": "",        "suite": "Suite 758",        "city": "",        "zipcode": "",        "geo": {            "lat": "-56.4486",            "lng": "88.3522"        } },    "Group": "2"}
,{"name": "CORRIVEAU, DENIS","username": "0050","avatar": ","email": "","dob": "0-0-0T00:00:00.0Z","phone": "0","address": {        "street": "",        "suite": "Suite 758",        "city": "",        "zipcode": "",        "geo": {            "lat": "-56.4486",            "lng": "88.3522"        } },    "Group": "2"}
,{"name": "CRAWFORD, NORMAN","username": "0097","avatar": ","email": "","dob": "0-0-0T00:00:00.0Z","phone": "0","address": {        "street": "",        "suite": "Suite 758",        "city": "",        "zipcode": "",        "geo": {            "lat": "-56.4486",            "lng": "88.3522"        } },    "Group": "2"}
,{"name": "CROTEAU, CLAUDE","username": "0153","avatar": ","email": "","dob": "0-0-0T00:00:00.0Z","phone": "0","address": {        "street": "",        "suite": "Suite 758",        "city": "",        "zipcode": "",        "geo": {            "lat": "-56.4486",            "lng": "88.3522"        } },    "Group": "2"}
,{"name": "DION, RAYMOND","username": "0224","avatar": ","email": "","dob": "0-0-0T00:00:00.0Z","phone": "0","address": {        "street": "",        "suite": "Suite 758",        "city": "",        "zipcode": "",        "geo": {            "lat": "-56.4486",            "lng": "88.3522"        } },    "Group": "2"}
,{"name": "FERRON, YVES","username": "0191","avatar": ","email": "","dob": "0-0-0T00:00:00.0Z","phone": "0","address": {        "street": "",        "suite": "Suite 758",        "city": "",        "zipcode": "",        "geo": {            "lat": "-56.4486",            "lng": "88.3522"        } },    "Group": "2"}
,{"name": "FORTIER, MARTIN","username": "0312","avatar": ","email": "","dob": "0-0-0T00:00:00.0Z","phone": "0","address": {        "street": "",        "suite": "Suite 758",        "city": "",        "zipcode": "",        "geo": {            "lat": "-56.4486",            "lng": "88.3522"        } },    "Group": "2"}
,{"name": "GAGNê, YVON","username": "0300","avatar": ","email": "","dob": "0-0-0T00:00:00.0Z","phone": "0","address": {        "street": "",        "suite": "Suite 758",        "city": "",        "zipcode": "",        "geo": {            "lat": "-56.4486",            "lng": "88.3522"        } },    "Group": "2"}
,{"name": "GOSSELIN, DANIEL","username": "0324","avatar": ","email": "","dob": "0-0-0T00:00:00.0Z","phone": "0","address": {        "street": "",        "suite": "Suite 758",        "city": "",        "zipcode": "",        "geo": {            "lat": "-56.4486",            "lng": "88.3522"        } },    "Group": "2"}
,{"name": "HOULE, PASCAL","username": "0113","avatar": ","email": "","dob": "0-0-0T00:00:00.0Z","phone": "0","address": {        "street": "",        "suite": "Suite 758",        "city": "",        "zipcode": "",        "geo": {            "lat": "-56.4486",            "lng": "88.3522"        } },    "Group": "2"}
,{"name": "LASANT, LUC","username": "0334","avatar": ","email": "","dob": "0-0-0T00:00:00.0Z","phone": "0","address": {        "street": "",        "suite": "Suite 758",        "city": "",        "zipcode": "",        "geo": {            "lat": "-56.4486",            "lng": "88.3522"        } },    "Group": "2"}
,{"name": "LEVASSEUR, LUC","username": "0333","avatar": ","email": "","dob": "0-0-0T00:00:00.0Z","phone": "0","address": {        "street": "",        "suite": "Suite 758",        "city": "",        "zipcode": "",        "geo": {            "lat": "-56.4486",            "lng": "88.3522"        } },    "Group": "2"}
,{"name": "MARTINEAU, MICHEL","username": "0370","avatar": ","email": "","dob": "0-0-0T00:00:00.0Z","phone": "0","address": {        "street": "",        "suite": "Suite 758",        "city": "",        "zipcode": "",        "geo": {            "lat": "-56.4486",            "lng": "88.3522"        } },    "Group": "2"}
,{"name": "MAXWELL, THOMAS","username": "0284","avatar": ","email": "","dob": "0-0-0T00:00:00.0Z","phone": "0","address": {        "street": "",        "suite": "Suite 758",        "city": "",        "zipcode": "",        "geo": {            "lat": "-56.4486",            "lng": "88.3522"        } },    "Group": "2"}
,{"name": "NADEAU, DANIEL","username": "0080","avatar": ","email": "","dob": "0-0-0T00:00:00.0Z","phone": "0","address": {        "street": "",        "suite": "Suite 758",        "city": "",        "zipcode": "",        "geo": {            "lat": "-56.4486",            "lng": "88.3522"        } },    "Group": "2"}
,{"name": "NEAULT, STEPHANE","username": "0291","avatar": ","email": "","dob": "0-0-0T00:00:00.0Z","phone": "0","address": {        "street": "",        "suite": "Suite 758",        "city": "",        "zipcode": "",        "geo": {            "lat": "-56.4486",            "lng": "88.3522"        } },    "Group": "2"}
,{"name": "OUELLETTE, SYLVIE","username": "0362","avatar": ","email": "","dob": "0-0-0T00:00:00.0Z","phone": "0","address": {        "street": "",        "suite": "Suite 758",        "city": "",        "zipcode": "",        "geo": {            "lat": "-56.4486",            "lng": "88.3522"        } },    "Group": "2"}
,{"name": "PERREAULT, MARIO","username": "0301","avatar": ","email": "","dob": "0-0-0T00:00:00.0Z","phone": "0","address": {        "street": "",        "suite": "Suite 758",        "city": "",        "zipcode": "",        "geo": {            "lat": "-56.4486",            "lng": "88.3522"        } },    "Group": "2"}
,{"name": "PRATTE, MARTIN","username": "0367","avatar": ","email": "","dob": "0-0-0T00:00:00.0Z","phone": "0","address": {        "street": "",        "suite": "Suite 758",        "city": "",        "zipcode": "",        "geo": {            "lat": "-56.4486",            "lng": "88.3522"        } },    "Group": "2"}
,{"name": "SEVIGNY, YVES","username": "0344","avatar": ","email": "","dob": "0-0-0T00:00:00.0Z","phone": "0","address": {        "street": "",        "suite": "Suite 758",        "city": "",        "zipcode": "",        "geo": {            "lat": "-56.4486",            "lng": "88.3522"        } },    "Group": "2"}
,{"name": "TANGUAY, ROLAND","username": "0031","avatar": ","email": "","dob": "0-0-0T00:00:00.0Z","phone": "0","address": {        "street": "",        "suite": "Suite 758",        "city": "",        "zipcode": "",        "geo": {            "lat": "-56.4486",            "lng": "88.3522"        } },    "Group": "2"}
,{"name": "TREMBLAY, SERGE","username": "0357","avatar": ","email": "","dob": "0-0-0T00:00:00.0Z","phone": "0","address": {        "street": "",        "suite": "Suite 758",        "city": "",        "zipcode": "",        "geo": {            "lat": "-56.4486",            "lng": "88.3522"        } },    "Group": "2"}
]
